[{"OBJECT_NAME":"ONEWEB-0492","OBJECT_ID":"2022-138B","EPOCH":"2026-03-09T23:47:44.398176","MEAN_MOTION":13.19725071,"ECCENTRICITY":0.00018733,"INCLINATION":87.9229,"RA_OF_ASC_NODE":324.7356,"ARG_OF_PERICENTER":83.248,"MEAN_ANOMALY":276.8866,"EPHEMERIS_TYPE":0,"CLASSIFICATION_TYPE":"U","NORAD_CAT_ID":54114,"ELEMENT_SET_NO":999,"REV_AT_EPOCH":16375,"BSTAR":-0.00046694898,"MEAN_MOTION_DOT":-1.74e-6,"MEAN_MOTION_DDOT":0},{"OBJECT_NAME":"FENGYUN 1C DEB","OBJECT_ID":"1999-025RP","EPOCH":"2026-03-09T19:24:09.713664","MEAN_MOTION":13.56282391,"ECCENTRICITY":0.02690192,"INCLINATION":98.9051,"RA_OF_ASC_NODE":174.3965,"ARG_OF_PERICENTER":128.6168,"MEAN_ANOMALY":233.9391,"EPHEMERIS_TYPE":0,"CLASSIFICATION_TYPE":"U","NORAD_CAT_ID":30110,"ELEMENT_SET_NO":999,"REV_AT_EPOCH":94695,"BSTAR":0.00034560876,"MEAN_MOTION_DOT":2.7e-6,"MEAN_MOTION_DDOT":0}]
